{"fetchedAt":"2026-06-29T18:07:57.361Z","satellites":[{"id":"65766","name":"KUIPER-00142","constellationId":"kuiper","omm":{"OBJECT_NAME":"KUIPER-00142","OBJECT_ID":"2025-217E","EPOCH":"2026-06-29T12:29:51.093600","MEAN_MOTION":14.79950207,"ECCENTRICITY":0.0000358,"INCLINATION":51.8993,"RA_OF_ASC_NODE":261.0675,"ARG_OF_PERICENTER":103.5963,"MEAN_ANOMALY":256.5039,"EPHEMERIS_TYPE":0,"CLASSIFICATION_TYPE":"U","NORAD_CAT_ID":65766,"ELEMENT_SET_NO":999,"REV_AT_EPOCH":4154,"BSTAR":0.000058295,"MEAN_MOTION_DOT":0.00000224,"MEAN_MOTION_DDOT":0}},{"id":"65767","name":"KUIPER-00145","constellationId":"kuiper","omm":{"OBJECT_NAME":"KUIPER-00145","OBJECT_ID":"2025-217F","EPOCH":"2026-06-29T10:48:47.629728","MEAN_MOTION":14.79924176,"ECCENTRICITY":0.0000616,"INCLINATION":51.8995,"RA_OF_ASC_NODE":263.8994,"ARG_OF_PERICENTER":101.8023,"MEAN_ANOMALY":258.3008,"EPHEMERIS_TYPE":0,"CLASSIFICATION_TYPE":"U","NORAD_CAT_ID":65767,"ELEMENT_SET_NO":999,"REV_AT_EPOCH":4149,"BSTAR":0.00010493,"MEAN_MOTION_DOT":0.00000579,"MEAN_MOTION_DDOT":0}},{"id":"65768","name":"KUIPER-00147","constellationId":"kuiper","omm":{"OBJECT_NAME":"KUIPER-00147","OBJECT_ID":"2025-217G","EPOCH":"2026-06-29T13:10:45.754752","MEAN_MOTION":14.79936941,"ECCENTRICITY":0.0000468,"INCLINATION":51.8986,"RA_OF_ASC_NODE":265.9445,"ARG_OF_PERICENTER":79.8983,"MEAN_ANOMALY":280.2032,"EPHEMERIS_TYPE":0,"CLASSIFICATION_TYPE":"U","NORAD_CAT_ID":65768,"ELEMENT_SET_NO":999,"REV_AT_EPOCH":4147,"BSTAR":0.00042649,"MEAN_MOTION_DOT":0.00003032,"MEAN_MOTION_DDOT":0}},{"id":"65769","name":"KUIPER-00148","constellationId":"kuiper","omm":{"OBJECT_NAME":"KUIPER-00148","OBJECT_ID":"2025-217H","EPOCH":"2026-06-29T09:33:55.005120","MEAN_MOTION":14.76091987,"ECCENTRICITY":0.0000654,"INCLINATION":51.9037,"RA_OF_ASC_NODE":248.7626,"ARG_OF_PERICENTER":249.1171,"MEAN_ANOMALY":110.972,"EPHEMERIS_TYPE":0,"CLASSIFICATION_TYPE":"U","NORAD_CAT_ID":65769,"ELEMENT_SET_NO":999,"REV_AT_EPOCH":4170,"BSTAR":0.00037076,"MEAN_MOTION_DOT":0.00002368,"MEAN_MOTION_DDOT":0}},{"id":"65770","name":"KUIPER-00150","constellationId":"kuiper","omm":{"OBJECT_NAME":"KUIPER-00150","OBJECT_ID":"2025-217J","EPOCH":"2026-06-29T11:18:00.582912","MEAN_MOTION":14.79929268,"ECCENTRICITY":0.0000529,"INCLINATION":51.9018,"RA_OF_ASC_NODE":276.3233,"ARG_OF_PERICENTER":107.8736,"MEAN_ANOMALY":252.2284,"EPHEMERIS_TYPE":0,"CLASSIFICATION_TYPE":"U","NORAD_CAT_ID":65770,"ELEMENT_SET_NO":999,"REV_AT_EPOCH":4132,"BSTAR":0.00023313,"MEAN_MOTION_DOT":0.00001556,"MEAN_MOTION_DDOT":0}},{"id":"65771","name":"KUIPER-00151","constellationId":"kuiper","omm":{"OBJECT_NAME":"KUIPER-00151","OBJECT_ID":"2025-217K","EPOCH":"2026-06-29T13:06:53.949600","MEAN_MOTION":14.79934966,"ECCENTRICITY":0.0000453,"INCLINATION":51.9013,"RA_OF_ASC_NODE":268.4868,"ARG_OF_PERICENTER":96.0406,"MEAN_ANOMALY":264.0608,"EPHEMERIS_TYPE":0,"CLASSIFICATION_TYPE":"U","NORAD_CAT_ID":65771,"ELEMENT_SET_NO":999,"REV_AT_EPOCH":4144,"BSTAR":0.00042291,"MEAN_MOTION_DOT":0.00003004,"MEAN_MOTION_DDOT":0}},{"id":"65772","name":"KUIPER-00152","constellationId":"kuiper","omm":{"OBJECT_NAME":"KUIPER-00152","OBJECT_ID":"2025-217L","EPOCH":"2026-06-29T11:00:25.905024","MEAN_MOTION":14.79925589,"ECCENTRICITY":0.0000493,"INCLINATION":51.899,"RA_OF_ASC_NODE":256.3593,"ARG_OF_PERICENTER":84.6228,"MEAN_ANOMALY":275.479,"EPHEMERIS_TYPE":0,"CLASSIFICATION_TYPE":"U","NORAD_CAT_ID":65772,"ELEMENT_SET_NO":999,"REV_AT_EPOCH":4160,"BSTAR":-0.00011485,"MEAN_MOTION_DOT":-0.00001096,"MEAN_MOTION_DDOT":0}},{"id":"65773","name":"KUIPER-00153","constellationId":"kuiper","omm":{"OBJECT_NAME":"KUIPER-00153","OBJECT_ID":"2025-217M","EPOCH":"2026-06-29T09:30:57.364992","MEAN_MOTION":14.79924346,"ECCENTRICITY":0.0000961,"INCLINATION":51.9018,"RA_OF_ASC_NODE":251.7061,"ARG_OF_PERICENTER":89.3354,"MEAN_ANOMALY":270.7718,"EPHEMERIS_TYPE":0,"CLASSIFICATION_TYPE":"U","NORAD_CAT_ID":65773,"ELEMENT_SET_NO":999,"REV_AT_EPOCH":4166,"BSTAR":0.000056483,"MEAN_MOTION_DOT":0.00000209,"MEAN_MOTION_DDOT":0}},{"id":"65774","name":"KUIPER-00155","constellationId":"kuiper","omm":{"OBJECT_NAME":"KUIPER-00155","OBJECT_ID":"2025-217N","EPOCH":"2026-06-29T11:50:55.808736","MEAN_MOTION":14.79929922,"ECCENTRICITY":0.0000437,"INCLINATION":51.9001,"RA_OF_ASC_NODE":223.741,"ARG_OF_PERICENTER":82.1298,"MEAN_ANOMALY":277.9714,"EPHEMERIS_TYPE":0,"CLASSIFICATION_TYPE":"U","NORAD_CAT_ID":65774,"ELEMENT_SET_NO":999,"REV_AT_EPOCH":4206,"BSTAR":0.00031874,"MEAN_MOTION_DOT":0.00002209,"MEAN_MOTION_DDOT":0}},{"id":"65775","name":"KUIPER-00156","constellationId":"kuiper","omm":{"OBJECT_NAME":"KUIPER-00156","OBJECT_ID":"2025-217P","EPOCH":"2026-06-29T11:56:50.008992","MEAN_MOTION":14.79936466,"ECCENTRICITY":0.0000442,"INCLINATION":51.9022,"RA_OF_ASC_NODE":251.2409,"ARG_OF_PERICENTER":91.2097,"MEAN_ANOMALY":268.8916,"EPHEMERIS_TYPE":0,"CLASSIFICATION_TYPE":"U","NORAD_CAT_ID":65775,"ELEMENT_SET_NO":999,"REV_AT_EPOCH":4167,"BSTAR":0.00039858,"MEAN_MOTION_DOT":0.00002819,"MEAN_MOTION_DDOT":0}},{"id":"65777","name":"KUIPER-00163","constellationId":"kuiper","omm":{"OBJECT_NAME":"KUIPER-00163","OBJECT_ID":"2025-217R","EPOCH":"2026-06-29T12:00:02.998944","MEAN_MOTION":15.94419352,"ECCENTRICITY":0.0007852,"INCLINATION":51.8808,"RA_OF_ASC_NODE":201.054,"ARG_OF_PERICENTER":19.3592,"MEAN_ANOMALY":332.1248,"EPHEMERIS_TYPE":0,"CLASSIFICATION_TYPE":"U","NORAD_CAT_ID":65777,"ELEMENT_SET_NO":999,"REV_AT_EPOCH":602,"BSTAR":0.00051788,"MEAN_MOTION_DOT":0.00197533,"MEAN_MOTION_DDOT":0.000026205}},{"id":"65778","name":"KUIPER-00165","constellationId":"kuiper","omm":{"OBJECT_NAME":"KUIPER-00165","OBJECT_ID":"2025-217S","EPOCH":"2026-06-29T10:04:03.337248","MEAN_MOTION":14.79924524,"ECCENTRICITY":0.0000554,"INCLINATION":51.8992,"RA_OF_ASC_NODE":261.5351,"ARG_OF_PERICENTER":97.1844,"MEAN_ANOMALY":262.9182,"EPHEMERIS_TYPE":0,"CLASSIFICATION_TYPE":"U","NORAD_CAT_ID":65778,"ELEMENT_SET_NO":999,"REV_AT_EPOCH":4152,"BSTAR":-0.000062399,"MEAN_MOTION_DOT":-0.00000697,"MEAN_MOTION_DDOT":0}},{"id":"65779","name":"KUIPER-00166","constellationId":"kuiper","omm":{"OBJECT_NAME":"KUIPER-00166","OBJECT_ID":"2025-217T","EPOCH":"2026-06-29T09:34:50.981088","MEAN_MOTION":14.79935066,"ECCENTRICITY":0.0000435,"INCLINATION":51.9015,"RA_OF_ASC_NODE":249.1713,"ARG_OF_PERICENTER":93.7723,"MEAN_ANOMALY":266.3289,"EPHEMERIS_TYPE":0,"CLASSIFICATION_TYPE":"U","NORAD_CAT_ID":65779,"ELEMENT_SET_NO":999,"REV_AT_EPOCH":4169,"BSTAR":0.00040466,"MEAN_MOTION_DOT":0.00002865,"MEAN_MOTION_DDOT":0}},{"id":"65780","name":"KUIPER-00167","constellationId":"kuiper","omm":{"OBJECT_NAME":"KUIPER-00167","OBJECT_ID":"2025-217U","EPOCH":"2026-06-29T13:02:59.235360","MEAN_MOTION":14.79927588,"ECCENTRICITY":0.0000481,"INCLINATION":51.8961,"RA_OF_ASC_NODE":270.9013,"ARG_OF_PERICENTER":103.5745,"MEAN_ANOMALY":256.5271,"EPHEMERIS_TYPE":0,"CLASSIFICATION_TYPE":"U","NORAD_CAT_ID":65780,"ELEMENT_SET_NO":999,"REV_AT_EPOCH":4140,"BSTAR":0.00015531,"MEAN_MOTION_DOT":0.00000963,"MEAN_MOTION_DDOT":0}},{"id":"65781","name":"KUIPER-00168","constellationId":"kuiper","omm":{"OBJECT_NAME":"KUIPER-00168","OBJECT_ID":"2025-217V","EPOCH":"2026-06-29T11:52:56.006688","MEAN_MOTION":14.79928931,"ECCENTRICITY":0.0000297,"INCLINATION":51.9001,"RA_OF_ASC_NODE":253.7043,"ARG_OF_PERICENTER":103.5601,"MEAN_ANOMALY":256.5394,"EPHEMERIS_TYPE":0,"CLASSIFICATION_TYPE":"U","NORAD_CAT_ID":65781,"ELEMENT_SET_NO":999,"REV_AT_EPOCH":4164,"BSTAR":-0.000065767,"MEAN_MOTION_DOT":-0.00000722,"MEAN_MOTION_DDOT":0}}]}