0 KUIPER-00147
1 65768U 25217G   26180.54914068  .00003032  00000-0  42649-3 0  9999
2 65768  51.8986 265.9445 0000468  79.8983 280.2032 14.79936941 41474
0 KUIPER-00151
1 65771U 25217K   26180.54645775  .00003004  00000-0  42291-3 0  9991
2 65771  51.9013 268.4868 0000453  96.0406 264.0608 14.79934966 41443
0 KUIPER-00167
1 65780U 25217U   26180.54374115  .00000963  00000-0  15531-3 0  9996
2 65780  51.8961 270.9013 0000481 103.5745 256.5271 14.79927588 41405
0 KUIPER-00142
1 65766U 25217E   26180.52073025  .00000224  00000-0  58295-4 0  9999
2 65766  51.8993 261.0675 0000358 103.5963 256.5039 14.79950207 41545
0 KUIPER-00163
1 65777U 25217R   26180.50003471  .00197533  26205-4  51788-3 0  9995
2 65777  51.8808 201.0540 0007852  19.3592 332.1248 15.94419352  6021
0 KUIPER-00156
1 65775U 25217P   26180.49780103  .00002819  00000-0  39858-3 0  9992
2 65775  51.9022 251.2409 0000442  91.2097 268.8916 14.79936466 41675
0 KUIPER-00168
1 65781U 25217V   26180.49509267 -.00000722  00000-0 -65767-4 0  9991
2 65781  51.9001 253.7043 0000297 103.5601 256.5394 14.79928931 41645
0 KUIPER-00155
1 65774U 25217N   26180.49370149  .00002209  00000-0  31874-3 0  9999
2 65774  51.9001 223.7410 0000437  82.1298 277.9714 14.79929922 42063
0 KUIPER-00150
1 65770U 25217J   26180.47084008  .00001556  00000-0  23313-3 0  9992
2 65770  51.9018 276.3233 0000529 107.8736 252.2284 14.79929268 41327
0 KUIPER-00152
1 65772U 25217L   26180.45863316 -.00001096  00000-0 -11485-3 0  9997
2 65772  51.8990 256.3593 0000493  84.6228 275.4790 14.79925589 41604
0 KUIPER-00145
1 65767U 25217F   26180.45055127  .00000579  00000-0  10493-3 0  9995
2 65767  51.8995 263.8994 0000616 101.8023 258.3008 14.79924176 41493
0 KUIPER-00165
1 65778U 25217S   26180.41948307 -.00000697  00000-0 -62399-4 0  9990
2 65778  51.8992 261.5351 0000554  97.1844 262.9182 14.79924524 41528
0 KUIPER-00166
1 65779U 25217T   26180.39920117  .00002865  00000-0  40466-3 0  9994
2 65779  51.9015 249.1713 0000435  93.7723 266.3289 14.79935066 41693
0 KUIPER-00148
1 65769U 25217H   26180.39855330  .00002368  00000-0  37076-3 0  9998
2 65769  51.9037 248.7626 0000654 249.1171 110.9720 14.76091987 41709
0 KUIPER-00153
1 65773U 25217M   26180.39649728  .00000209  00000-0  56483-4 0  9991
2 65773  51.9018 251.7061 0000961  89.3354 270.7718 14.79924346 41662
